#dP2023 12 29  0  0  0.00000000      96 __u+U IGS20 FIT  IAC
## 2294 432000.00000000   900.00000000 60307 0.0000000000000
+  119   C06C07C09C10C11C12C13C14C16C19C20C21C22C23C24C25C26
+        C27C28C29C30C32C33C34C35C36C37C38C39C40C41C42C43C44
+        C45C46E02E03E04E05E07E08E09E10E11E12E13E14E15E18E19
+        E21E24E25E26E27E30E31E33E34E36G01G02G03G04G05G06G07
+        G08G09G10G11G12G13G14G15G16G17G18G19G20G21G22G23G24
+        G25G26G27G28G29G30G31G32J02J03J04R01R02R03R04R05R07
+        R08R09R11R12R13R14R15R16R17R18R19R20R21R22R24R25R26
++         9  6  8  7  8  7  9  8  9  6  7  7  7  6  7  7  6
++         6  6  7  6  7  8  6  5  6  8  9  8 10  8  8  6  6
++         6  6  6  6  6  6  6  6  6  6  6  6  6  6  5  6  7
++         6  6  7  6  6  6  6  6  5  6  5  5  6  5  6  5  6
++         6  5  7  5  6  6  6  6  6  7  6  6  5  5  6  5  5
++         6  6  6  6  7  5  6  7  6  7  8  9  8  8  9  6  8
++         8  6  6  7  5  6  6  6  6  5  7  6  5  5  6  7  6
%c M  cc GPS ccc cccc cccc cccc cccc ccccc ccccc ccccc ccccc
%c cc cc ccc ccc cccc cccc cccc cccc ccccc ccccc ccccc ccccc
%f  0.0000000  0.000000000  0.00000000000  0.000000000000000
%f  0.0000000  0.000000000  0.00000000000  0.000000000000000
%i    0    0    0    0      0      0      0      0         0
%i    0    0    0    0      0      0      0      0         0
/* INFORMATION & ANALYSIS CENTER (IAC)      ULTRA-RAPID DATA
/* S/V CLOCKS ARE ALIGNED TO GNSS TIME                      
/* G:C1WC2W R:C1PC2P E:C1XC5X C:C2IC6I J:C1CC2S             
/* PCV:IGS20_2290 OL/AL:FES2004  NONE     YN ORB:CoN CLK:CoN
*  2023 12 29  7 45  0.00000000
PC06 -19017.050739  33657.440842  16509.172029    233.188149
PC07  -2336.320684  38091.137445  18220.662056   -550.771238
PC09  -9432.729372  31988.630557  25844.772470   -280.557198
PC10   3033.846150  40199.260337  13580.225105    147.062833
PC11 -11937.104390 -10019.534805  23224.172332    330.618955
PC12   2717.584585 -23664.540689  14583.157183    811.938458
PC13   1197.374025  22324.266238 -35560.673399    401.388752
PC14 -18508.977583 -18622.048541  -9367.197299   -148.521096
PC16 -19655.803544  33575.458869  16097.438008   -251.746833
PC19  19552.851645  10420.130473  16999.669596   -945.221759
PC20  15354.788861  23233.505215   1994.691891    -14.811169
PC21  -1368.632172 -23076.488424  15631.145148   -965.732758
PC22  12762.035420  -9102.492413  23082.513135   -168.309456
PC23 -24673.233777   7845.417787  10421.335109   -797.054797
PC24 -13302.067729 -14279.635407 -19979.904978    738.214583
PC25 -27022.671843  -3433.218511  -6131.710477    289.164102
PC26   6810.171620 -15998.178662 -21841.329015   -226.996241
PC27  -9075.452910  25483.241011  -6846.289555    249.016430
PC28 -18240.060949  19062.907417   9101.916509    188.644175
PC29  17291.685422     80.544027 -21904.422589    220.920454
PC30   5697.353187  18943.462712 -19677.566894    -12.000402
PC32   1493.075613  23035.665910 -15672.640763   -547.549465
PC33 -19627.471976 -10382.156445 -16895.042797   -941.915078
PC34  -6839.328153 -17838.764575  20340.413815    335.332861
PC35  17546.575561 -19744.348634  -9069.495687    469.801509
PC36  26676.406429   4537.670604   6805.445985    -73.898373
PC37  -7905.921349  15727.543543  21661.722245   -931.399572
PC38 -14308.008649  19343.142445 -34584.362489    127.078694
PC39 -22840.083023  34032.614442   9397.385472     -6.358745
PC40      0.000000      0.000000      0.000000 999999.999999
PC41 -13218.694114   8391.306722 -23048.056326   -875.974278
PC42 -14528.521460 -23808.507148   -369.165672   -473.432394
PC43 -17038.116808  -1167.864427  22060.423055     54.232242
PC44   8224.546909 -25851.441331   6604.778203    337.352130
PC45  24421.111143  -8002.676501 -10853.089852    -58.861339
PC46  14272.796266  13842.552565  19550.514644   -111.297048
PE02  24824.300079   3039.920113 -15824.162220     90.568334
PE03  16847.006046  -5268.147342  23752.630457    -83.350553
PE04 -10281.582043  24387.578550 -13249.990330   -291.074501
PE05  13553.777301  16693.443932  20339.261511   4705.103024
PE07  -2020.766267 -29168.251050  -4601.707388    -95.550510
PE08  10515.208747 -23971.633069  13808.696568   -199.574005
PE09   1924.465488  29198.588314   4490.666315   -280.058298
PE10 -12101.398783  19745.240874 -18435.552080   -589.994244
PE11   -902.224831  17742.506336 -23674.339444   3277.784327
PE12 -20249.682828  18570.682549 -10984.709845   -839.362662
PE13   1708.401207 -17934.134256  23498.974513    -19.777098
PE14  19066.551321   5810.958460 -23150.506188     -4.833359
PE15  20626.752415 -18439.200155  10543.483730    -77.251611
PE18 -16206.074305  12755.812990  17456.726101    149.059316
PE19 -16859.417011   2456.818240 -24202.620690   -920.148646
PE21 -24461.018944 -16634.806734  -1188.453369   -571.196140
PE24   9232.604995  21173.583701  18475.072042   -512.160598
PE25  24294.070545  16828.329934   1555.695541     -1.287385
PE26 -18515.091704  -6615.584148  22139.774568    323.537099
PE27  -9787.267494 -21181.050918 -18226.060553   -235.926398
PE30  10829.584543 -13024.411055 -24287.903774   -780.555242
PE31 -10506.509395  13184.203072  24332.160677    -12.649360
PE33 -27145.777895   7704.551811   8961.171942      5.035125
PE34  27173.459193  -8177.533976  -8403.331744    -85.987780
PE36  17916.713814   6947.102675 -22506.185965   -164.308443
PG01  -4157.490805  16964.935442 -20253.196192    164.811845
PG02 -10736.743999  18866.903933 -14646.790571   -508.781237
PG03   3030.469684  17578.293402 -19858.484017     88.612003
PG04  -1206.967247  26441.414158    979.467063    252.043048
PG05   9359.865285 -11815.993957  21698.624913   -155.923977
PG06  24140.812631  -5100.342036  -9888.566065    462.927821
PG07  12059.354333  11021.400654  21491.322976    -23.877283
PG08  -5598.544771  24524.982873   7736.464886   -159.382356
PG09   7945.633678  22403.131112  11704.632586     41.644384
PG10 -23887.903814 -10354.539808  -5875.290994    -67.188875
PG11  23728.163618 -11838.305436    939.518699   -519.435756
PG12  -1431.678148 -18027.881864 -19760.115672   -462.359790
PG13  13135.369989 -17800.364975  14333.365189    610.490289
PG14  23078.452966  13071.565092  -2666.809631    283.955769
PG15   2674.154462 -25116.340658   7361.967264    111.735569
PG16 -15964.046260   5587.592440  20265.558460   -394.965018
PG17  12833.762171  10630.738473 -20215.202232    721.087731
PG18 -12892.973040  -9604.537542  21190.058899   -518.607366
PG19  15085.600246    960.660649 -22016.745116    419.060694
PG20  20469.956693  -4224.534000  16342.330534    394.253433
PG21 -13877.946035  18588.886633 -11508.368352    140.111555
PG22  22743.048209   8865.044701  -9670.261287     57.643194
PG23 -19943.298988 -16582.442127   6186.492103    124.931052
PG24  10073.188517 -19697.244904 -14792.115903   -403.215898
PG25 -13593.326014 -19118.053180 -13046.382953    483.298352
PG26 -22535.998250     27.182706  14193.933141    205.206903
PG27 -12682.176195  14726.450548  17640.429987    -88.621108
PG28 -23239.496109   3296.078972 -12447.726620    -83.063474
PG29  -5033.619095 -23461.532947  11230.367517   -609.341762
PG30  20629.408681   3112.469501  16709.102467   -451.915476
PG31 -24875.023734   9015.537580  -4356.781571   -226.953505
PG32 -14572.519486  -6394.122931 -21106.353628   -600.659983
PJ02 -27316.575824  21029.658455  29386.989146     -0.824716
PJ03 -33514.417703  25213.097943   1119.615337    -14.015689
PJ04 -19329.428390  26392.272808 -21547.231331     75.354893
PR01 -12045.519657 -21457.561352  -6708.921022     73.269812
PR02 -12996.479600  -8059.183638 -20395.366520    -22.351255
PR03  -7226.717761  10381.955278 -22094.241586     91.823653
PR04   2367.014564  22539.364373 -11659.520337    217.339792
PR05  10571.178518  22635.197854   5089.492176    124.573294
PR07   6789.622973 -11302.600305  21886.436364     72.398850
PR08  -2556.900955 -22649.031770  11550.888943    -73.862027
PR09  25310.450648   3492.535584    -75.807468    161.398006
PR11   3788.611102 -10443.588988 -22956.181666   -224.126964
PR12 -16460.077882 -10642.039427 -16316.349837     35.006471
PR13 -24932.881511  -4913.932357  -2268.188898    -42.742300
PR14 -19213.698869   4877.370058  16048.889147     25.857648
PR15  -2278.326446  10841.993848  22988.595069     83.563683
PR16  16280.786903  10514.530196  16604.599671     21.997500
PR17 -17899.949910  17321.751623   5605.611819     47.643010
PR18 -10946.394509  20268.329517 -10878.278467    119.319681
PR19    -15.360987  14078.748537 -21263.877733   -260.046986
PR20  15109.122377  -3100.719105 -20314.241567   -105.922404
PR21  17902.900933 -17420.537476  -5093.533807    -64.683277
PR22  10682.977548 -19977.599142  11768.684805    100.569231
PR24 -15543.918762   3905.621483  19873.253797    -37.787718
PR25  18629.006572 -16527.734120  -5464.129099      7.607594
PR26  -2264.419272 -22297.704585  12182.167982    -21.670011
EOF
